{
  "type": "FeatureCollection",
  "features": [
    {
      "type": "Feature",
      "properties": {
        "norad_id": 66355,
        "name": "STARLINK-35861",
        "group": "last-30-days",
        "lat": 40.696574262903376,
        "lon": 106.64042253980149,
        "alt_km": 357.57780726954024,
        "timestamp": "2025-12-02T07:10:07.865036+00:00",
        "meta_object_name": "STARLINK-35861",
        "meta_object_id": "2025-254H",
        "meta_epoch": "2025-12-01T20:00:01.999008",
        "meta_mean_motion": 15.70323973,
        "meta_eccentricity": 9.2e-05,
        "meta_inclination": 53.1588,
        "meta_ra_of_asc_node": 329.0858,
        "meta_arg_of_pericenter": 94.7209,
        "meta_mean_anomaly": 280.1283,
        "meta_ephemeris_type": 0,
        "meta_classification_type": "U",
        "meta_norad_cat_id": 66355,
        "meta_element_set_no": 999,
        "meta_rev_at_epoch": 517,
        "meta_bstar": -0.017966,
        "meta_mean_motion_dot": -0.01973102,
        "meta_mean_motion_ddot": 0,
        "tle_line1": "1 66355U 25254H   25335.83335647 -.01973102  00000+0 -17966-1 0  9994",
        "tle_line2": "2 66355  53.1588 329.0858 0000920  94.7209 280.1283 15.70323973  5171"
      },
      "geometry": {
        "type": "Point",
        "coordinates": [
          106.64042253980149,
          40.696574262903376
        ]
      }
    },
    {
      "type": "Feature",
      "properties": {
        "norad_id": 66356,
        "name": "STARLINK-35851",
        "group": "last-30-days",
        "lat": 39.50593217841549,
        "lon": 108.60401329717664,
        "alt_km": 357.7686379855422,
        "timestamp": "2025-12-02T07:10:07.865055+00:00",
        "meta_object_name": "STARLINK-35851",
        "meta_object_id": "2025-254J",
        "meta_epoch": "2025-12-01T20:00:01.999008",
        "meta_mean_motion": 15.70318642,
        "meta_eccentricity": 8.96e-05,
        "meta_inclination": 53.1588,
        "meta_ra_of_asc_node": 329.0811,
        "meta_arg_of_pericenter": 96.6231,
        "meta_mean_anomaly": 280.1441,
        "meta_ephemeris_type": 0,
        "meta_classification_type": "U",
        "meta_norad_cat_id": 66356,
        "meta_element_set_no": 999,
        "meta_rev_at_epoch": 517,
        "meta_bstar": -0.017885,
        "meta_mean_motion_dot": -0.0196484,
        "meta_mean_motion_ddot": 0,
        "tle_line1": "1 66356U 25254J   25335.83335647 -.01964840  00000+0 -17885-1 0  9994",
        "tle_line2": "2 66356  53.1588 329.0811 0000896  96.6231 280.1441 15.70318642  5172"
      },
      "geometry": {
        "type": "Point",
        "coordinates": [
          108.60401329717664,
          39.50593217841549
        ]
      }
    },
    {
      "type": "Feature",
      "properties": {
        "norad_id": 66357,
        "name": "STARLINK-35817",
        "group": "last-30-days",
        "lat": 38.28328240293531,
        "lon": 110.50124833320423,
        "alt_km": 357.9173968562809,
        "timestamp": "2025-12-02T07:10:07.865072+00:00",
        "meta_object_name": "STARLINK-35817",
        "meta_object_id": "2025-254K",
        "meta_epoch": "2025-12-01T20:00:01.999008",
        "meta_mean_motion": 15.70322216,
        "meta_eccentricity": 9.63e-05,
        "meta_inclination": 53.159,
        "meta_ra_of_asc_node": 329.077,
        "meta_arg_of_pericenter": 99.0495,
        "meta_mean_anomaly": 279.6318,
        "meta_ephemeris_type": 0,
        "meta_classification_type": "U",
        "meta_norad_cat_id": 66357,
        "meta_element_set_no": 999,
        "meta_rev_at_epoch": 517,
        "meta_bstar": -0.01792,
        "meta_mean_motion_dot": -0.01968602,
        "meta_mean_motion_ddot": 0,
        "tle_line1": "1 66357U 25254K   25335.83335647 -.01968602  00000+0 -17920-1 0  9995",
        "tle_line2": "2 66357  53.1590 329.0770 0000963  99.0495 279.6318 15.70322216  5172"
      },
      "geometry": {
        "type": "Point",
        "coordinates": [
          110.50124833320423,
          38.28328240293531
        ]
      }
    },
    {
      "type": "Feature",
      "properties": {
        "norad_id": 66358,
        "name": "STARLINK-35807",
        "group": "last-30-days",
        "lat": 37.03287986667604,
        "lon": 112.33164275039061,
        "alt_km": 358.17274897546486,
        "timestamp": "2025-12-02T07:10:07.865097+00:00",
        "meta_object_name": "STARLINK-35807",
        "meta_object_id": "2025-254L",
        "meta_epoch": "2025-12-01T20:00:01.999008",
        "meta_mean_motion": 15.70302413,
        "meta_eccentricity": 8.05e-05,
        "meta_inclination": 53.159,
        "meta_ra_of_asc_node": 329.0728,
        "meta_arg_of_pericenter": 108.2587,
        "meta_mean_anomaly": 272.3514,
        "meta_ephemeris_type": 0,
        "meta_classification_type": "U",
        "meta_norad_cat_id": 66358,
        "meta_element_set_no": 999,
        "meta_rev_at_epoch": 517,
        "meta_bstar": -0.017708,
        "meta_mean_motion_dot": -0.01946419,
        "meta_mean_motion_ddot": 0,
        "tle_line1": "1 66358U 25254L   25335.83335647 -.01946419  00000+0 -17708-1 0  9992",
        "tle_line2": "2 66358  53.1590 329.0728 0000805 108.2587 272.3514 15.70302413  5171"
      },
      "geometry": {
        "type": "Point",
        "coordinates": [
          112.33164275039061,
          37.03287986667604
        ]
      }
    },
    {
      "type": "Feature",
      "properties": {
        "norad_id": 66359,
        "name": "STARLINK-35805",
        "group": "last-30-days",
        "lat": 35.75025064823356,
        "lon": 114.1088384489057,
        "alt_km": 358.34612572444166,
        "timestamp": "2025-12-02T07:10:07.865116+00:00",
        "meta_object_name": "STARLINK-35805",
        "meta_object_id": "2025-254M",
        "meta_epoch": "2025-12-01T20:00:01.999008",
        "meta_mean_motion": 15.70319973,
        "meta_eccentricity": 9.91e-05,
        "meta_inclination": 53.1587,
        "meta_ra_of_asc_node": 329.0693,
        "meta_arg_of_pericenter": 96.3868,
        "meta_mean_anomaly": 286.1279,
        "meta_ephemeris_type": 0,
        "meta_classification_type": "U",
        "meta_norad_cat_id": 66359,
        "meta_element_set_no": 999,
        "meta_rev_at_epoch": 514,
        "meta_bstar": -0.017885,
        "meta_mean_motion_dot": -0.01965003,
        "meta_mean_motion_ddot": 0,
        "tle_line1": "1 66359U 25254M   25335.83335647 -.01965003  00000+0 -17885-1 0  9999",
        "tle_line2": "2 66359  53.1587 329.0693 0000991  96.3868 286.1279 15.70319973  5141"
      },
      "geometry": {
        "type": "Point",
        "coordinates": [
          114.1088384489057,
          35.75025064823356
        ]
      }
    },
    {
      "type": "Feature",
      "properties": {
        "norad_id": 66360,
        "name": "STARLINK-35823",
        "group": "last-30-days",
        "lat": 33.11430954477463,
        "lon": 117.49008028658992,
        "alt_km": 358.93625074326883,
        "timestamp": "2025-12-02T07:10:07.865135+00:00",
        "meta_object_name": "STARLINK-35823",
        "meta_object_id": "2025-254N",
        "meta_epoch": "2025-12-01T20:00:01.999008",
        "meta_mean_motion": 15.70360735,
        "meta_eccentricity": 0.0001079,
        "meta_inclination": 53.1585,
        "meta_ra_of_asc_node": 329.0606,
        "meta_arg_of_pericenter": 90.205,
        "meta_mean_anomaly": 296.137,
        "meta_ephemeris_type": 0,
        "meta_classification_type": "U",
        "meta_norad_cat_id": 66360,
        "meta_element_set_no": 999,
        "meta_rev_at_epoch": 517,
        "meta_bstar": -0.01853,
        "meta_mean_motion_dot": -0.02030497,
        "meta_mean_motion_ddot": 0,
        "tle_line1": "1 66360U 25254N   25335.83335647 -.02030497  00000+0 -18530-1 0  9990",
        "tle_line2": "2 66360  53.1585 329.0606 0001079  90.2050 296.1370 15.70360735  5177"
      },
      "geometry": {
        "type": "Point",
        "coordinates": [
          117.49008028658992,
          33.11430954477463
        ]
      }
    },
    {
      "type": "Feature",
      "properties": {
        "norad_id": 66361,
        "name": "STARLINK-35813",
        "group": "last-30-days",
        "lat": 34.44438854899963,
        "lon": 115.82634545579873,
        "alt_km": 358.6302961492256,
        "timestamp": "2025-12-02T07:10:07.865154+00:00",
        "meta_object_name": "STARLINK-35813",
        "meta_object_id": "2025-254P",
        "meta_epoch": "2025-12-01T20:00:01.999008",
        "meta_mean_motion": 15.70318563,
        "meta_eccentricity": 0.0001055,
        "meta_inclination": 53.1587,
        "meta_ra_of_asc_node": 329.0655,
        "meta_arg_of_pericenter": 90.5647,
        "meta_mean_anomaly": 293.8659,
        "meta_ephemeris_type": 0,
        "meta_classification_type": "U",
        "meta_norad_cat_id": 66361,
        "meta_element_set_no": 999,
        "meta_rev_at_epoch": 517,
        "meta_bstar": -0.017869,
        "meta_mean_motion_dot": -0.01963407,
        "meta_mean_motion_ddot": 0,
        "tle_line1": "1 66361U 25254P   25335.83335647 -.01963407  00000+0 -17869-1 0  9990",
        "tle_line2": "2 66361  53.1587 329.0655 0001055  90.5647 293.8659 15.70318563  5179"
      },
      "geometry": {
        "type": "Point",
        "coordinates": [
          115.82634545579873,
          34.44438854899963
        ]
      }
    }
  ]
}